STARLINK-2586_new
1 18390C 21038AP  21326.18055318  .00005852  00000-0  39210-3 0  3265
2 18390  53.0526 182.9272 0001977  74.3266 160.0882 15.06392631    12
STARLINK-2586_old
1 28390C 21038AP  21325.11443765  .00007893  00000-0  52897-3 0  3256
2 28390  53.0526 187.7133 0001906  74.1248 135.5386 15.06383022    11
